{
  "links" : {
    "next" : "https://api.nasa.gov/neo/rest/v1/feed?start_date=1998-08-16&end_date=1998-08-16&detailed=true&api_key=t0TVs3DtDT2H8Oy2Zy8m2eVrNsAVKAexjcZXUckd",
    "prev" : "https://api.nasa.gov/neo/rest/v1/feed?start_date=1998-08-14&end_date=1998-08-14&detailed=true&api_key=t0TVs3DtDT2H8Oy2Zy8m2eVrNsAVKAexjcZXUckd",
    "self" : "https://api.nasa.gov/neo/rest/v1/feed?start_date=1998-08-15&end_date=1998-08-15&detailed=true&api_key=t0TVs3DtDT2H8Oy2Zy8m2eVrNsAVKAexjcZXUckd"
  },
  "element_count" : 7,
  "near_earth_objects" : {
    "1998-08-15" : [ {
      "links" : {
        "self" : "https://api.nasa.gov/neo/rest/v1/neo/2141851?api_key=t0TVs3DtDT2H8Oy2Zy8m2eVrNsAVKAexjcZXUckd"
      },
      "neo_reference_id" : "2141851",
      "name" : "141851 (2002 PM6)",
      "nasa_jpl_url" : "http://ssd.jpl.nasa.gov/sbdb.cgi?sstr=2141851",
      "absolute_magnitude_h" : 17.7,
      "estimated_diameter" : {
        "kilometers" : {
          "estimated_diameter_min" : 0.7665755735,
          "estimated_diameter_max" : 1.7141150923
        },
        "meters" : {
          "estimated_diameter_min" : 766.5755735311,
          "estimated_diameter_max" : 1714.1150923063
        },
        "miles" : {
          "estimated_diameter_min" : 0.4763278307,
          "estimated_diameter_max" : 1.065101409
        },
        "feet" : {
          "estimated_diameter_min" : 2515.0118046636,
          "estimated_diameter_max" : 5623.7373594423
        }
      },
      "is_potentially_hazardous_asteroid" : true,
      "close_approach_data" : [ {
        "close_approach_date" : "1998-08-15",
        "epoch_date_close_approach" : 903164400000,
        "relative_velocity" : {
          "kilometers_per_second" : "40.0952185366",
          "kilometers_per_hour" : "144342.7867316887",
          "miles_per_hour" : "89688.9943444762"
        },
        "miss_distance" : {
          "astronomical" : "0.3007125865",
          "lunar" : "116.9771957397",
          "kilometers" : "44985964",
          "miles" : "27952982"
        },
        "orbiting_body" : "Earth"
      } ],
      "orbital_data" : {
        "orbit_id" : "96",
        "orbit_determination_date" : "2017-09-25 06:51:52",
        "orbit_uncertainty" : "0",
        "minimum_orbit_intersection" : ".0379183",
        "jupiter_tisserand_invariant" : "4.821",
        "epoch_osculation" : "2458000.5",
        "eccentricity" : ".8501086318748257",
        "semi_major_axis" : "1.19791953382273",
        "inclination" : "19.17587248676405",
        "ascending_node_longitude" : "304.1391675426631",
        "orbital_period" : "478.8945526435303",
        "perihelion_distance" : ".17955779782856",
        "perihelion_argument" : "224.397532585538",
        "aphelion_distance" : "2.216281269816899",
        "perihelion_time" : "2458191.098380397518",
        "mean_anomaly" : "216.7212415252068",
        "mean_motion" : ".7517312485865116",
        "equinox" : "J2000"
      }
    }, {
      "links" : {
        "self" : "https://api.nasa.gov/neo/rest/v1/neo/2190788?api_key=t0TVs3DtDT2H8Oy2Zy8m2eVrNsAVKAexjcZXUckd"
      },
      "neo_reference_id" : "2190788",
      "name" : "190788 (2001 RT17)",
      "nasa_jpl_url" : "http://ssd.jpl.nasa.gov/sbdb.cgi?sstr=2190788",
      "absolute_magnitude_h" : 18.3,
      "estimated_diameter" : {
        "kilometers" : {
          "estimated_diameter_min" : 0.5815070396,
          "estimated_diameter_max" : 1.30028927
        },
        "meters" : {
          "estimated_diameter_min" : 581.5070396458,
          "estimated_diameter_max" : 1300.2892700427
        },
        "miles" : {
          "estimated_diameter_min" : 0.3613316107,
          "estimated_diameter_max" : 0.807962044
        },
        "feet" : {
          "estimated_diameter_min" : 1907.8315559515,
          "estimated_diameter_max" : 4266.0410487267
        }
      },
      "is_potentially_hazardous_asteroid" : false,
      "close_approach_data" : [ {
        "close_approach_date" : "1998-08-15",
        "epoch_date_close_approach" : 903164400000,
        "relative_velocity" : {
          "kilometers_per_second" : "26.2922561118",
          "kilometers_per_hour" : "94652.1220026233",
          "miles_per_hour" : "58813.1476965745"
        },
        "miss_distance" : {
          "astronomical" : "0.1754732103",
          "lunar" : "68.2590789795",
          "kilometers" : "26250420",
          "miles" : "16311254"
        },
        "orbiting_body" : "Earth"
      } ],
      "orbital_data" : {
        "orbit_id" : "53",
        "orbit_determination_date" : "2017-09-22 06:51:10",
        "orbit_uncertainty" : "0",
        "minimum_orbit_intersection" : ".162295",
        "jupiter_tisserand_invariant" : "4.669",
        "epoch_osculation" : "2458000.5",
        "eccentricity" : ".7921510393363974",
        "semi_major_axis" : "1.268242754890387",
        "inclination" : "20.11251766924048",
        "ascending_node_longitude" : "350.023651095654",
        "orbital_period" : "521.6773869658924",
        "perihelion_distance" : ".2636029384731111",
        "perihelion_argument" : "199.5898463465008",
        "aphelion_distance" : "2.272882571307663",
        "perihelion_time" : "2457774.022174224594",
        "mean_anomaly" : "156.2881951877221",
        "mean_motion" : ".6900816654020255",
        "equinox" : "J2000"
      }
    }, {
      "links" : {
        "self" : "https://api.nasa.gov/neo/rest/v1/neo/2450894?api_key=t0TVs3DtDT2H8Oy2Zy8m2eVrNsAVKAexjcZXUckd"
      },
      "neo_reference_id" : "2450894",
      "name" : "450894 (2008 BT18)",
      "nasa_jpl_url" : "http://ssd.jpl.nasa.gov/sbdb.cgi?sstr=2450894",
      "absolute_magnitude_h" : 18.3,
      "estimated_diameter" : {
        "kilometers" : {
          "estimated_diameter_min" : 0.5815070396,
          "estimated_diameter_max" : 1.30028927
        },
        "meters" : {
          "estimated_diameter_min" : 581.5070396458,
          "estimated_diameter_max" : 1300.2892700427
        },
        "miles" : {
          "estimated_diameter_min" : 0.3613316107,
          "estimated_diameter_max" : 0.807962044
        },
        "feet" : {
          "estimated_diameter_min" : 1907.8315559515,
          "estimated_diameter_max" : 4266.0410487267
        }
      },
      "is_potentially_hazardous_asteroid" : true,
      "close_approach_data" : [ {
        "close_approach_date" : "1998-08-15",
        "epoch_date_close_approach" : 903164400000,
        "relative_velocity" : {
          "kilometers_per_second" : "25.6490374255",
          "kilometers_per_hour" : "92336.5347319613",
          "miles_per_hour" : "57374.3318172012"
        },
        "miss_distance" : {
          "astronomical" : "0.4510195646",
          "lunar" : "175.4466094971",
          "kilometers" : "67471568",
          "miles" : "41924888"
        },
        "orbiting_body" : "Earth"
      } ],
      "orbital_data" : {
        "orbit_id" : "67",
        "orbit_determination_date" : "2017-04-06 09:20:09",
        "orbit_uncertainty" : "0",
        "minimum_orbit_intersection" : ".0108398",
        "jupiter_tisserand_invariant" : "3.383",
        "epoch_osculation" : "2458000.5",
        "eccentricity" : ".5935203654340239",
        "semi_major_axis" : "2.221578812619061",
        "inclination" : "8.133827451369825",
        "ascending_node_longitude" : "107.6663814115061",
        "orbital_period" : "1209.458620024305",
        "perihelion_distance" : ".9030265439129112",
        "perihelion_argument" : "139.2819533841841",
        "aphelion_distance" : "3.540131081325211",
        "perihelion_time" : "2458254.208832292466",
        "mean_anomaly" : "284.482592365622",
        "mean_motion" : ".2976538378739784",
        "equinox" : "J2000"
      }
    } ]
  }
}